[
    {
        "Altitude(m)": 617719.7443677303,
        "Argument of Periapsis(deg)": 0.0,
        "Eccentricity": 0.0,
        "Inclination(deg)": 60.0,
        "Latitude(deg)": -41.102568160841116,
        "Longitude(deg)": 25.09471892139294,
        "Mean Anomaly(deg)": -130.90909999999997,
        "RAAN(deg)": 275.0,
        "Satellite Name": "Test1 1224",
        "Satellite Number": 1224,
        "Semi-Major Axis(m)": 6980739.136638005,
        "Time(s)": 0
    },
    {
        "Altitude(m)": 617911.2799473249,
        "Argument of Periapsis(deg)": 0.00010418945913296404,
        "Eccentricity": 0.0,
        "Inclination(deg)": 60.0,
        "Latitude(deg)": -41.56575941590866,
        "Longitude(deg)": 25.599126090945944,
        "Mean Anomaly(deg)": -130.2889938545381,
        "RAAN(deg)": 274.9995799508602,
        "Satellite Name": "Test1 1224",
        "Satellite Number": 1224,
        "Semi-Major Axis(m)": 6980739.136638005,
        "Time(s)": 10
    }
]